{
  "type": "FeatureCollection",
  "properties": { "note": "Illustrative sample data pending live monitoring feed" },
  "features": [
    {
      "type": "Feature",
      "geometry": {
        "type": "Polygon",
        "coordinates": [[[90.39, 23.70], [90.43, 23.70], [90.43, 23.735], [90.39, 23.735], [90.39, 23.70]]]
      },
      "properties": {
        "name": "Buriganga corridor",
        "risk": "High",
        "note": "Low-lying riverside settlement, seasonal inundation"
      }
    },
    {
      "type": "Feature",
      "geometry": {
        "type": "Polygon",
        "coordinates": [[[90.38, 23.855], [90.43, 23.855], [90.43, 23.90], [90.38, 23.90], [90.38, 23.855]]]
      },
      "properties": {
        "name": "Turag corridor",
        "risk": "High",
        "note": "Upstream flood pulse zone"
      }
    },
    {
      "type": "Feature",
      "geometry": {
        "type": "Polygon",
        "coordinates": [[[90.395, 23.745], [90.425, 23.745], [90.425, 23.775], [90.395, 23.775], [90.395, 23.745]]]
      },
      "properties": {
        "name": "Central drainage basin",
        "risk": "Medium",
        "note": "Localized waterlogging during heavy rainfall"
      }
    },
    {
      "type": "Feature",
      "geometry": {
        "type": "Polygon",
        "coordinates": [[[90.36, 23.77], [90.39, 23.77], [90.39, 23.80], [90.36, 23.80], [90.36, 23.77]]]
      },
      "properties": {
        "name": "Mohammadpur–Mirpur belt",
        "risk": "Medium",
        "note": "Mixed drainage capacity, monitored"
      }
    }
  ]
}
